GSLV R/B                
1 54149U 22138AN  26061.83456019  .00004713  00000+0  40842-3 0  9995
2 54149  87.3885 168.6561 0021989 170.5085 189.6567 14.96713300182908
XRISM                   
1 57800U 23137A   26062.10273933  .00007313  00000+0  41646-3 0  9997
2 57800  31.0033 326.2655 0008204 332.0919  27.9278 15.11407310136796
ACS3                    
1 59588U 24077B   26061.80074936  .00018685  00000+0  15165-1 0  9993
2 59588  97.2115   4.4612 0054690  95.3082 265.4325 13.89236949 93249
SZ-21 MODULE            
1 66515U 25246C   26061.55898934  .00039531  00000+0  34908-3 0  9995
2 66515  41.4734 247.2373 0001469 286.7563  73.3117 15.67907744 16956
